NORAD_CAT_ID,OBJECT_NAME,OBJECT_TYPE,EPOCH,MEAN_MOTION,ECCENTRICITY,INCLINATION,RA_OF_ASC_NODE,ARG_OF_PERICENTER,MEAN_ANOMALY,BSTAR,MEAN_MOTION_DOT,MEAN_MOTION_DDOT,TLE_LINE0,TLE_LINE1,TLE_LINE2,SEMIMAJOR_AXIS,PERIOD,APOGEE,PERIGEE,DECAYED
52267.0,STARLINK-3748,PAYLOAD,2022-08-14 14:00:01,15.08858465,0.0002508999999999,53.2157,198.9825,50.6538,96.6175,-0.0019042999999999,-0.00030484,0.0,0 STARLINK-3748,1 52267U 22041G   22226.58334491 -.00030484  00000-0 -19043-2 0  9992,2 52267  53.2157 198.9825 0002509  50.6538  96.6175 15.08858465  1300,6917.824000000001,95.436,541.425,537.953,0.0
52267.0,STARLINK-3748,PAYLOAD,2022-08-14 22:00:00,15.08844961,0.0002424999999999,53.2161,197.4853,55.5691,103.3057,0.0012409,0.00019519,0.0,0 STARLINK-3748,1 52267U 22041G   22226.91667824  .00019519  00000-0  12409-2 0  9991,2 52267  53.2161 197.4853 0002425  55.5691 103.3057 15.08844961 18917,6917.865,95.437,541.408,538.053,0.0
52267.0,STARLINK-3748,PAYLOAD,2022-08-15 14:00:01,15.08843296,0.0002423,53.2155,194.4934,51.5973,130.4868,-0.0019175,-0.0003068,0.0,0 STARLINK-3748,1 52267U 22041G   22227.58334491 -.00030680  00000-0 -19175-2 0  9997,2 52267  53.2155 194.4934 0002423  51.5973 130.4868 15.08843296  1300,6917.87,95.437,541.4119999999998,538.059,0.0
52267.0,STARLINK-3748,PAYLOAD,2022-08-15 22:00:00,15.088334699999995,0.0002378,53.2157,192.9965,56.5884,137.0787,0.00076241,0.00011864,0.0,0 STARLINK-3748,1 52267U 22041G   22227.91667824  .00011864  00000-0  76241-3 0  9992,2 52267  53.2157 192.9965 0002378  56.5884 137.0787 15.08833470  1300,6917.9,95.438,541.41,538.12,0.0
52267.0,STARLINK-3748,PAYLOAD,2022-08-16 06:00:02,15.08826665,0.0002552,53.2155,191.5019,52.1398,153.1866,0.001048,0.00016424,0.0,0 STARLINK-3748,1 52267U 22041G   22228.25002315  .00016424  00000-0  10480-2 0  9997,2 52267  53.2155 191.5019 0002552  52.1398 153.1866 15.08826665 19112,6917.920999999999,95.438,541.552,538.021,0.0
52267.0,STARLINK-3748,PAYLOAD,2022-08-16 14:00:01,15.0885665,0.0002457,53.2152,190.0043,54.042,162.8077,-0.001687,-0.0002705,0.0,0 STARLINK-3748,1 52267U 22041G   22228.58334491 -.00027050  00000-0 -16870-2 0  9994,2 52267  53.2152 190.0043 0002457  54.0420 162.8077 15.08856650  1301,6917.829000000002,95.437,541.394,537.995,0.0
52267.0,STARLINK-3748,PAYLOAD,2022-08-16 22:00:00,15.08858392,0.0002423999999999,53.2152,188.5076,58.3751,170.0712,-0.000728,-0.00011862,0.0,0 STARLINK-3748,1 52267U 22041G   22228.91667824 -.00011862  00000-0 -72800-3 0  9990,2 52267  53.2152 188.5076 0002424  58.3751 170.0712 15.08858392  1309,6917.824000000001,95.436,541.366,538.012,0.0
52267.0,STARLINK-3748,PAYLOAD,2022-08-17 06:00:02,15.0882173,0.0002549999999999,53.2151,187.0128,52.6445,187.4844,0.00068932,0.00010694,0.0,0 STARLINK-3748,1 52267U 22041G   22229.25002315  .00010694  00000-0  68932-3 0  9997,2 52267  53.2151 187.0128 0002550  52.6445 187.4844 15.08821730 19265,6917.936,95.439,541.565,538.0369999999998,0.0
52267.0,STARLINK-3748,PAYLOAD,2022-08-17 16:00:00,15.08819686,0.0002396999999999,53.215,185.1407,55.5545,288.9887,0.0014719,0.00023202,0.0,0 STARLINK-3748,1 52267U 22041G   22229.66667824  .00023202  00000-0  14719-2 0  9996,2 52267  53.2150 185.1407 0002397  55.5545 288.9887 15.08819686  1302,6917.941999999999,95.439,541.466,538.149,0.0
52267.0,STARLINK-3748,PAYLOAD,2022-08-18 08:00:01,15.08836713,0.0002559,53.2149,182.1496,52.4226,315.31,0.0025954,0.00041257,0.0,0 STARLINK-3748,1 52267U 22041G   22230.33334491  .00041257  00000-0  25954-2 0  9996,2 52267  53.2149 182.1496 0002559  52.4226 315.3100 15.08836713 19422,6917.89,95.438,541.526,537.985,0.0
52267.0,STARLINK-3748,PAYLOAD,2022-08-18 14:00:01,15.08870813,0.000244,53.215,181.0259,54.5415,231.8934,-0.0036654,-0.00058204,0.0,0 STARLINK-3748,1 52267U 22041G   22230.58334491 -.00058204  00000-0 -36654-2 0  9994,2 52267  53.2150 181.0259 0002440  54.5415 231.8934 15.08870813  1305,6917.786,95.436,541.339,537.9630000000002,0.0
52267.0,STARLINK-3748,PAYLOAD,2022-08-18 22:00:00,15.08847394,0.0002409,53.2151,179.5292,57.7815,240.2559,0.00034899,5.271e-05,0.0,0 STARLINK-3748,1 52267U 22041G   22230.91667824  .00005271  00000-0  34899-3 0  9994,2 52267  53.2151 179.5292 0002409  57.7815 240.2559 15.08847394 19516,6917.858,95.437,541.389,538.056,0.0
52267.0,STARLINK-3748,PAYLOAD,2022-08-19 14:00:01,15.088267300000002,0.0002298,53.2153,176.5366,52.9382,268.3085,-0.0023452,-0.00037407,0.0,0 STARLINK-3748,1 52267U 22041G   22231.58334491 -.00037407  00000-0 -23452-2 0  9999,2 52267  53.2153 176.5366 0002298  52.9382 268.3085 15.08826730  1303,6917.920999999999,95.438,541.376,538.196,0.0
52267.0,STARLINK-3748,PAYLOAD,2022-08-19 22:00:00,15.08817726,0.0002283,53.2155,175.0401,55.4342,277.3655,-0.00021896,-3.769e-05,0.0,0 STARLINK-3748,1 52267U 22041G   22231.91667824 -.00003769  00000-0 -21896-3 0  9990,2 52267  53.2155 175.0401 0002283  55.4342 277.3655 15.08817726  1305,6917.948,95.439,541.393,538.234,0.0
52267.0,STARLINK-3748,PAYLOAD,2022-08-20 06:00:00,15.08793124,0.0002461999999999,53.2155,173.5453,51.3413,293.0283,0.0028256,0.00044912,0.0,0 STARLINK-3748,1 52267U 22041G   22232.25001157  .00044912  00000-0  28256-2 0  9998,2 52267  53.2155 173.5453 0002462  51.3413 293.0283 15.08793124 19719,6918.024,95.441,541.592,538.185,0.0
52267.0,STARLINK-3748,PAYLOAD,2022-08-20 14:00:01,15.08825671,0.0002316999999999,53.2156,172.0475,54.6555,301.2814,0.00020771,3.018e-05,0.0,0 STARLINK-3748,1 52267U 22041G   22232.58334491  .00003018  00000-0  20771-3 0  9991,2 52267  53.2156 172.0475 0002317  54.6555 301.2814 15.08825671  1301,6917.924,95.438,541.3919999999998,538.186,0.0
52267.0,STARLINK-3748,PAYLOAD,2022-08-20 22:00:00,15.08845516,0.0002331,53.2158,170.5512,57.027,310.4790000000001,-0.00059639,-9.769e-05,0.0,0 STARLINK-3748,1 52267U 22041G   22232.91667824 -.00009769  00000-0 -59639-3 0  9993,2 52267  53.2158 170.5512 0002331  57.0270 310.4790 15.08845516  1300,6917.864000000001,95.437,541.341,538.116,0.0
52267.0,STARLINK-3748,PAYLOAD,2022-08-21 14:00:01,15.08827715,0.0002247,53.2157,167.5583,55.9029,334.7958,-0.0010164,-0.00016423,0.0,0 STARLINK-3748,1 52267U 22041G   22233.58334491 -.00016423  00000-0 -10164-2 0  9992,2 52267  53.2157 167.5583 0002247  55.9029 334.7958 15.08827715  1304,6917.918000000002,95.438,541.337,538.2280000000002,0.0
52267.0,STARLINK-3748,PAYLOAD,2022-08-21 22:00:00,15.08836288,0.000225,53.2159,166.0623,57.0985,345.1642,-0.0011356,-0.00018315,0.0,0 STARLINK-3748,1 52267U 22041G   22233.91667824 -.00018315  00000-0 -11356-2 0  9994,2 52267  53.2159 166.0623 0002250  57.0985 345.1642 15.08836288  1304,6917.892,95.438,541.313,538.2,0.0
52267.0,STARLINK-3748,PAYLOAD,2022-08-22 06:00:00,15.088029999999998,0.0002378,53.2157,164.5673,52.9858,0.8635,0.002924,0.00046509,0.0,0 STARLINK-3748,1 52267U 22041G   22234.25001157  .00046509  00000-0  29240-2 0  9998,2 52267  53.2157 164.5673 0002378  52.9858   0.8635 15.08803000 20027,6917.993,95.44,541.504,538.2130000000002,0.0
52267.0,STARLINK-3748,PAYLOAD,2022-08-22 12:00:00,15.08842374,0.0002290999999999,53.2156,163.4438,55.9467,276.5777,-0.0016715,-0.00026795,0.0,0 STARLINK-3748,1 52267U 22041G   22234.50001157 -.00026795  00000-0 -16715-2 0  9996,2 52267  53.2156 163.4438 0002291  55.9467 276.5777 15.08842374  1302,6917.873000000001,95.437,541.323,538.153,0.0
52267.0,STARLINK-3748,PAYLOAD,2022-08-22 22:00:00,15.08853359,0.0002287,53.2158,161.5735,59.3562,17.6455,-0.0015505999999999,-0.00024891,0.0,0 STARLINK-3748,1 52267U 22041G   22234.91667824 -.00024891  00000-0 -15506-2 0  9992,2 52267  53.2158 161.5735 0002287  59.3562  17.6455 15.08853359  1304,6917.84,95.437,541.2869999999998,538.122,0.0
52267.0,STARLINK-3748,PAYLOAD,2022-08-23 14:00:01,15.08828776,0.0002263,53.2155,158.5804,60.4531,39.7457,0.0014038,0.00022118,0.0,0 STARLINK-3748,1 52267U 22041G   22235.58334491  .00022118  00000-0  14038-2 0  9994,2 52267  53.2155 158.5804 0002263  60.4531  39.7457 15.08828776 20221,6917.915,95.438,541.345,538.214,0.0
52267.0,STARLINK-3748,PAYLOAD,2022-08-23 22:00:01,15.08863664,0.0002355999999999,53.2156,157.0846,61.5527,50.2963,-0.0017885,-0.00028659,0.0,0 STARLINK-3748,1 52267U 22041G   22235.91668981 -.00028659  00000-0 -17885-2 0  9996,2 52267  53.2156 157.0846 0002356  61.5527  50.2963 15.08863664  1305,6917.808000000001,95.436,541.303,538.043,0.0
52267.0,STARLINK-3748,PAYLOAD,2022-08-24 14:00:01,15.08839353,0.0002315,53.2154,154.0913,62.0413,72.9678,0.0014841,0.0002340999999999,0.0,0 STARLINK-3748,1 52267U 22041G   22236.58334491  .00023410  00000-0  14841-2 0  9993,2 52267  53.2154 154.0913 0002315  62.0413  72.9678 15.08839353 20370,6917.882,95.438,541.349,538.146,0.0
52267.0,STARLINK-3748,PAYLOAD,2022-08-24 22:00:00,15.0887698,0.0002444,53.2162,152.596,62.6618,83.9461,-0.0023902,-0.00038168,0.0,0 STARLINK-3748,1 52267U 22041G   22236.91667824 -.00038168  00000-0 -23902-2 0  9995,2 52267  53.2162 152.5960 0002444  62.6618  83.9461 15.08876980  1301,6917.767,95.435,541.323,537.942,0.0
52267.0,STARLINK-3748,PAYLOAD,2022-08-25 06:00:02,15.08839104,0.0002463999999999,53.2154,151.1002,57.6014,100.697,0.00034155,5.152e-05,0.0,0 STARLINK-3748,1 52267U 22041G   22237.25002315  .00005152  00000-0  34155-3 0  9999,2 52267  53.2154 151.1002 0002464  57.6014 100.6970 15.08839104 20478,6917.8830000000025,95.438,541.453,538.044,0.0
52267.0,STARLINK-3748,PAYLOAD,2022-08-25 14:00:01,15.08818512,0.0002319,53.2157,149.6021,62.1381,107.7013,0.002114,0.00033497,0.0,0 STARLINK-3748,1 52267U 22041G   22237.58334491  .00033497  00000-0  21140-2 0  9990,2 52267  53.2157 149.6021 0002319  62.1381 107.7013 15.08818512  1308,6917.946,95.439,541.415,538.207,0.0
52267.0,STARLINK-3748,PAYLOAD,2022-08-25 22:00:00,15.08855795,0.0002449,53.2159,148.1067,62.4945,118.9263,-0.0016236,-0.00026047,0.0,0 STARLINK-3748,1 52267U 22041G   22237.91667824 -.00026047  00000-0 -16236-2 0  9991,2 52267  53.2159 148.1067 0002449  62.4945 118.9263 15.08855795  1302,6917.831999999999,95.437,541.391,538.003,0.0
